NORAD_CAT_ID,OBJECT_NAME,OBJECT_TYPE,EPOCH,MEAN_MOTION,ECCENTRICITY,INCLINATION,RA_OF_ASC_NODE,ARG_OF_PERICENTER,MEAN_ANOMALY,BSTAR,MEAN_MOTION_DOT,MEAN_MOTION_DDOT,TLE_LINE0,TLE_LINE1,TLE_LINE2,SEMIMAJOR_AXIS,PERIOD,APOGEE,PERIGEE,DECAYED
55290.0,STARLINK-5266,PAYLOAD,2024-02-13 14:28:55,14.98322983,0.0002411,70.0018,128.338,257.4596,102.6294,-0.00010376,-1.33e-05,0.0,0 STARLINK-5266,1 55290U 23010X   24044.60341762 -.00001330  00000-0 -10376-3 0  9999,2 55290  70.0018 128.3380 0002411 257.4596 102.6294 14.98322983 60166,6950.215,96.107,573.755,570.404,0.0
55290.0,STARLINK-5266,PAYLOAD,2024-02-13 22:29:35,14.98328551,0.0002462,70.0015,127.4968,266.4096,93.6781,-8.5944e-05,-1.118e-05,0.0,0 STARLINK-5266,1 55290U 23010X   24044.93721419 -.00001118  00000-0 -85944-4 0  9994,2 55290  70.0015 127.4968 0002462 266.4096  93.6781 14.98328551 60219,6950.197,96.107,573.774,570.351,0.0
55290.0,STARLINK-5266,PAYLOAD,2024-02-14 11:18:39,14.98328267,0.0002815,70.0007,126.1497,267.8205,92.2632,-2.7151e-05,-4.17e-06,0.0,0 STARLINK-5266,1 55290U 23010X   24045.47129247 -.00000417  00000-0 -27151-4 0  9992,2 55290  70.0007 126.1497 0002815 267.8205  92.2632 14.98328267 59999,6950.198,96.107,574.02,570.107,0.0
55290.0,STARLINK-5266,PAYLOAD,2024-02-14 14:30:55,14.98329867,0.0002646,70.0006,125.813,266.0347,94.051,2.2542e-05,1.76e-06,0.0,0 STARLINK-5266,1 55290U 23010X   24045.60481033  .00000176  00000-0  22542-4 0  9990,2 55290  70.0006 125.8130 0002646 266.0347  94.0510 14.98329867 60318,6950.193,96.107,573.897,570.219,0.0
55290.0,STARLINK-5266,PAYLOAD,2024-02-14 22:31:35,14.98340971,0.0002797,70.0003,124.9714,262.1379,97.9463,-0.0001859,-2.311e-05,0.0,0 STARLINK-5266,1 55290U 23010X   24045.93860717 -.00002311  00000-0 -18590-3 0  9998,2 55290  70.0003 124.9714 0002797 262.1379  97.9463 14.98340971 60062,6950.159,96.106,573.968,570.08,0.0
55290.0,STARLINK-5266,PAYLOAD,2024-02-15 11:20:41,14.98321223,0.0002727,70.0002,123.6248,271.0168,89.0679,2.0927e-05,1.57e-06,0.0,0 STARLINK-5266,1 55290U 23010X   24046.47269721  .00000157  00000-0  20927-4 0  9998,2 55290  70.0002 123.6248 0002727 271.0168  89.0679 14.98321223 60146,6950.22,96.108,573.98,570.19,0.0
55290.0,STARLINK-5266,PAYLOAD,2024-02-15 14:32:57,14.98322891,0.0002723,70.0003,123.2882,271.6068,88.4779,3.9816e-05,3.82e-06,0.0,0 STARLINK-5266,1 55290U 23010X   24046.60621621  .00000382  00000-0  39816-4 0  9991,2 55290  70.0003 123.2882 0002723 271.6068  88.4779 14.98322891 60469,6950.215,96.107,573.972,570.187,0.0
55290.0,STARLINK-5266,PAYLOAD,2024-02-15 22:33:37,14.98329706,0.0003101,69.9996,122.4444,271.4535,88.6269,1.6019e-05,9.8e-07,0.0,0 STARLINK-5266,1 55290U 23010X   24046.94001163  .00000098  00000-0  16019-4 0  9995,2 55290  69.9996 122.4444 0003101 271.4535  88.6269 14.98329706 60211,6950.194,96.107,574.214,569.904,0.0
55290.0,STARLINK-5266,PAYLOAD,2024-02-16 14:34:57,14.98335801,0.0003087,69.9995,120.7619,273.7626,86.318,0.00011903,1.328e-05,0.0,0 STARLINK-5266,1 55290U 23010X   24047.60760517  .00001328  00000-0  11903-3 0  9997,2 55290  69.9995 120.7619 0003087 273.7626  86.3180 14.98335801 60618,6950.175,96.107,574.185,569.894,0.0
55290.0,STARLINK-5266,PAYLOAD,2024-02-17 11:24:42,14.98315389,0.0002657,70.0011,118.5762,269.6826,90.4028,0.00020085,2.303e-05,0.0,0 STARLINK-5266,1 55290U 23010X   24048.47549651  .00002303  00000-0  20085-3 0  9992,2 55290  70.0011 118.5762 0002657 269.6826  90.4028 14.98315389 60449,6950.238,96.108,573.95,570.256,0.0
55290.0,STARLINK-5266,PAYLOAD,2024-02-17 14:36:52,14.98403523,0.0002822,69.9991,118.2371,267.4687,92.6149,0.00080329,9.523e-05,0.0,0 STARLINK-5266,1 55290U 23010X   24048.60894315  .00009523  00000-0  80329-3 0  9995,2 55290  69.9991 118.2371 0002822 267.4687  92.6149 14.98403523 60762,6949.966,96.102,573.792,569.869,0.0
55290.0,STARLINK-5266,PAYLOAD,2024-02-18 11:26:42,14.98330735,0.000262,69.9996,116.0494,271.577,88.5089,-0.0001431,-1.8e-05,0.0,0 STARLINK-5266,1 55290U 23010X   24049.47688186 -.00001800  00000-0 -14310-3 0  9997,2 55290  69.9996 116.0494 0002620 271.5770  88.5089 14.98330735 60596,6950.191,96.107,573.877,570.235,0.0
55290.0,STARLINK-5266,PAYLOAD,2024-02-18 14:38:58,14.98332578,0.0002673,69.9996,115.7134,273.3366,86.7487,-0.00011745,-1.494e-05,0.0,0 STARLINK-5266,1 55290U 23010X   24049.61039945 -.00001494  00000-0 -11745-3 0  9994,2 55290  69.9996 115.7134 0002673 273.3366  86.7487 14.98332578 60917,6950.185,96.107,573.908,570.192,0.0
55290.0,STARLINK-5266,PAYLOAD,2024-02-18 21:03:31,14.98329077,0.0002384,70.0001,115.0399,269.3684,90.7202,-0.00032564,-3.976e-05,0.0,0 STARLINK-5266,1 55290U 23010X   24049.87744810 -.00003976  00000-0 -32564-3 0  9995,2 55290  70.0001 115.0399 0002384 269.3684  90.7202 14.98329077 60954,6950.196,96.107,573.718,570.404,0.0
55290.0,STARLINK-5266,PAYLOAD,2024-02-19 11:28:45,14.98316981,0.0002095,70.0003,113.5265,255.5479,104.5448,-0.00026455,-3.247e-05,0.0,0 STARLINK-5266,1 55290U 23010X   24050.47829882 -.00003247  00000-0 -26455-3 0  9999,2 55290  70.0003 113.5265 0002095 255.5479 104.5448 14.98316981 60742,6950.233,96.108,573.554,570.642,0.0
55290.0,STARLINK-5266,PAYLOAD,2024-02-19 13:04:53,14.98311225,0.0002339,70.0003,113.358,263.7975,96.2918,-0.00018079,-2.248e-05,0.0,0 STARLINK-5266,1 55290U 23010X   24050.54506080 -.00002248  00000-0 -18079-3 0  9992,2 55290  70.0003 113.3580 0002339 263.7975  96.2918 14.98311225 61053,6950.251,96.108,573.742,570.49,0.0
55290.0,STARLINK-5266,PAYLOAD,2024-02-19 21:05:33,14.98330579,0.0002384,70.0003,112.5146,275.277,84.8117,-0.00038573,-4.692e-05,0.0,0 STARLINK-5266,1 55290U 23010X   24050.87885572 -.00004692  00000-0 -38573-3 0  9990,2 55290  70.0003 112.5146 0002384 275.2770  84.8117 14.98330579 61106,6950.191,96.107,573.713,570.399,0.0
55290.0,STARLINK-5266,PAYLOAD,2024-02-20 11:30:45,14.98317049,0.0002159,70.0,110.9992,273.1332,86.958,7.1482e-05,7.6e-06,0.0,0 STARLINK-5266,1 55290U 23010X   24051.47969228  .00000760  00000-0  71482-4 0  9995,2 55290  70.0000 110.9992 0002159 273.1332  86.9580 14.98317049 60894,6950.233,96.108,573.598,570.597,0.0
55290.0,STARLINK-5266,PAYLOAD,2024-02-20 13:06:53,14.98316598,0.0002202,69.9999,110.8309,275.1158,84.975,5.7184e-05,5.89e-06,0.0,0 STARLINK-5266,1 55290U 23010X   24051.54645356  .00000589  00000-0  57184-4 0  9998,2 55290  69.9999 110.8309 0002202 275.1158  84.9750 14.98316598 61207,6950.234,96.108,573.63,570.569,0.0
55290.0,STARLINK-5266,PAYLOAD,2024-02-20 21:07:33,14.98324467,0.0002289,70.0004,109.9887,283.2199,76.8705,0.00011229,1.247e-05,0.0,0 STARLINK-5266,1 55290U 23010X   24051.88024952  .00001247  00000-0  11229-3 0  9999,2 55290  70.0004 109.9887 0002289 283.2199  76.8705 14.98324467 61256,6950.21,96.107,573.666,570.484,0.0
55290.0,STARLINK-5266,PAYLOAD,2024-02-21 11:32:43,14.98350911,0.0002259,69.9999,108.4736,259.0634,101.0271,0.00058001,6.838e-05,0.0,0 STARLINK-5266,1 55290U 23010X   24052.48106269  .00006838  00000-0  58001-3 0  9998,2 55290  69.9999 108.4736 0002259 259.0634 101.0271 14.98350911 61044,6950.128,96.106,573.563,570.423,0.0
55290.0,STARLINK-5266,PAYLOAD,2024-02-21 13:08:53,14.9832674,0.0002243,69.9998,108.3055,265.7856,94.3047,0.00029099,3.38e-05,0.0,0 STARLINK-5266,1 55290U 23010X   24052.54784450  .00003380  00000-0  29099-3 0  9993,2 55290  69.9998 108.3055 0002243 265.7856  94.3047 14.98326740 61351,6950.203,96.107,573.627,570.509,0.0
55290.0,STARLINK-5266,PAYLOAD,2024-02-21 21:09:34,14.9832453,0.0002505,70.0006,107.4639,275.9198,84.1675,0.00013006,1.459e-05,0.0,0 STARLINK-5266,1 55290U 23010X   24052.88165098  .00001459  00000-0  13006-3 0  9997,2 55290  70.0006 107.4639 0002505 275.9198  84.1675 14.98324530 61400,6950.21,96.107,573.816,570.334,0.0
55290.0,STARLINK-5266,PAYLOAD,2024-02-22 03:34:07,14.98326745,0.0002278,69.9992,106.7911,277.3773,82.7127,4.7811e-05,4.78e-06,0.0,0 STARLINK-5266,1 55290U 23010X   24053.14869361  .00000478  00000-0  47811-4 0  9993,2 55290  69.9992 106.7911 0002278 277.3773  82.7127 14.98326745 61145,6950.203,96.107,573.651,570.485,0.0
55290.0,STARLINK-5266,PAYLOAD,2024-02-22 13:10:55,14.98326325,0.0002149,69.9993,105.78,266.6115,93.4799,1.3614e-05,7e-07,0.0,0 STARLINK-5266,1 55290U 23010X   24053.54925501  .00000070  00000-0  13614-4 0  9998,2 55290  69.9993 105.7800 0002149 266.6115  93.4799 14.98326325 61508,6950.204,96.107,573.563,570.576,0.0
55290.0,STARLINK-5266,PAYLOAD,2024-02-22 21:11:35,14.98329249,0.0002159,69.9999,104.9389,281.636,78.4557,6.0592e-06,-2.1e-07,0.0,0 STARLINK-5266,1 55290U 23010X   24053.88305454 -.00000021  00000-0  60592-5 0  9999,2 55290  69.9999 104.9389 0002159 281.6360  78.4557 14.98329249 61555,6950.195,96.107,573.561,570.56,0.0
55290.0,STARLINK-5266,PAYLOAD,2024-02-23 03:36:07,14.9833537,0.000251,69.9995,104.2665,277.3888,82.6986,-3.2406e-05,-4.8e-06,0.0,0 STARLINK-5266,1 55290U 23010X   24054.15008949 -.00000480  00000-0 -32406-4 0  9991,2 55290  69.9995 104.2665 0002510 277.3888  82.6986 14.98335370 61295,6950.176,96.107,573.786,570.297,0.0
55290.0,STARLINK-5266,PAYLOAD,2024-02-23 13:12:55,14.98338273,0.0002331,69.9993,103.2562,273.0688,87.0204,2.1541e-05,1.64e-06,0.0,0 STARLINK-5266,1 55290U 23010X   24054.55064434  .00000164  00000-0  21541-4 0  9991,2 55290  69.9993 103.2562 0002331 273.0688  87.0204 14.98338273 61657,6950.167,96.106,573.652,570.412,0.0
55290.0,STARLINK-5266,PAYLOAD,2024-02-24 03:38:08,14.98330564,0.0002628,69.9989,101.7409,274.3359,85.75,0.00012466,1.395e-05,0.0,0 STARLINK-5266,1 55290U 23010X   24055.15148280  .00001395  00000-0  12466-3 0  9992,2 55290  69.9989 101.7409 0002628 274.3359  85.7500 14.98330564 61449,6950.191,96.107,573.883,570.23,0.0
55290.0,STARLINK-5266,PAYLOAD,2024-02-24 11:38:47,14.9834477,0.0002044,69.9996,100.9006,265.8606,94.232,0.00010754,1.191e-05,0.0,0 STARLINK-5266,1 55290U 23010X   24055.48527305  .00001191  00000-0  10754-3 0  9999,2 55290  69.9996 100.9006 0002044 265.8606  94.2320 14.98344770 61497,6950.147,96.106,573.433,570.592,0.0
